[{"OBJECT_NAME":"STARLINK-4252","OBJECT_ID":"2022-077Q","EPOCH":"2026-03-09T22:40:46.889760","MEAN_MOTION":15.05655199,"ECCENTRICITY":0.00015341,"INCLINATION":97.6027,"RA_OF_ASC_NODE":251.553,"ARG_OF_PERICENTER":69.2175,"MEAN_ANOMALY":290.9216,"EPHEMERIS_TYPE":0,"CLASSIFICATION_TYPE":"U","NORAD_CAT_ID":53057,"ELEMENT_SET_NO":999,"REV_AT_EPOCH":20102,"BSTAR":-2.0556285e-5,"MEAN_MOTION_DOT":-3.57e-6,"MEAN_MOTION_DDOT":0},{"OBJECT_NAME":"BLACK ARROW R\/B","OBJECT_ID":"1971-093B","EPOCH":"2026-03-09T22:36:05.554944","MEAN_MOTION":14.00366378,"ECCENTRICITY":0.05041089,"INCLINATION":82.0373,"RA_OF_ASC_NODE":52.5877,"ARG_OF_PERICENTER":268.267,"MEAN_ANOMALY":86.0721,"EPHEMERIS_TYPE":0,"CLASSIFICATION_TYPE":"U","NORAD_CAT_ID":5581,"ELEMENT_SET_NO":999,"REV_AT_EPOCH":73271,"BSTAR":0.00039679437,"MEAN_MOTION_DOT":1.821e-5,"MEAN_MOTION_DDOT":0}]
